{
    "links": {
        "self": "http://www.neowsapp.com/rest/v1/neo/3838043?api_key=iIulBulltgU6a56xZRHN4H3l9WmuAYTsLGpBGhQ2"
    },
    "id": "3838043",
    "neo_reference_id": "3838043",
    "name": "(2019 BX3)",
    "designation": "2019 BX3",
    "nasa_jpl_url": "http://ssd.jpl.nasa.gov/sbdb.cgi?sstr=3838043",
    "absolute_magnitude_h": 26.0,
    "estimated_diameter": {
        "kilometers": {
            "estimated_diameter_min": 0.0167708462,
            "estimated_diameter_max": 0.0375007522
        },
        "meters": {
            "estimated_diameter_min": 16.7708462163,
            "estimated_diameter_max": 37.5007521798
        },
        "miles": {
            "estimated_diameter_min": 0.0104209175,
            "estimated_diameter_max": 0.0233018799
        },
        "feet": {
            "estimated_diameter_min": 55.0224631002,
            "estimated_diameter_max": 123.0339677816
        }
    },
    "is_potentially_hazardous_asteroid": false,
    "close_approach_data": [
        {
            "close_approach_date": "1950-02-28",
            "close_approach_date_full": "1950-Feb-28 15:51",
            "epoch_date_close_approach": -626083740000,
            "relative_velocity": {
                "kilometers_per_second": "14.6045767083",
                "kilometers_per_hour": "52576.4761500042",
                "miles_per_hour": "32668.9776388734"
            },
            "miss_distance": {
                "astronomical": "0.3860581531",
                "lunar": "150.1766215559",
                "kilometers": "57753477.399893897",
                "miles": "35886346.7842818986"
            },
            "orbiting_body": "Earth"
        },
        {
            "close_approach_date": "2019-02-01",
            "close_approach_date_full": "2019-Feb-01 12:25",
            "epoch_date_close_approach": 1549023900000,
            "relative_velocity": {
                "kilometers_per_second": "9.0759419132",
                "kilometers_per_hour": "32673.3908875683",
                "miles_per_hour": "20301.9744656671"
            },
            "miss_distance": {
                "astronomical": "0.0452145738",
                "lunar": "17.5884692082",
                "kilometers": "6764003.933437806",
                "miles": "4202957.1505254828"
            },
            "orbiting_body": "Earth"
        }
    ],
    "orbital_data": {
        "orbit_id": "2",
        "orbit_determination_date": "2019-02-03 07:04:41",
        "first_observation_date": "2019-01-28",
        "last_observation_date": "2019-02-03",
        "data_arc_in_days": 6,
        "observations_used": 31,
        "orbit_uncertainty": "8",
        "minimum_orbit_intersection": ".0431136",
        "jupiter_tisserand_invariant": "4.591",
        "epoch_osculation": "2458512.5",
        "eccentricity": ".2853001218934606",
        "semi_major_axis": "1.437615041071353",
        "inclination": "15.46283304781843",
        "ascending_node_longitude": "310.2988257438643",
        "orbital_period": "629.5965488730362",
        "perihelion_distance": "1.027463294617824",
        "perihelion_argument": "185.2831123095496",
        "aphelion_distance": "1.847766787524883",
        "perihelion_time": "2458519.983054409866",
        "mean_anomaly": "355.7212287894942",
        "mean_motion": ".5717947479928089",
        "equinox": "J2000",
        "orbit_class": {
            "orbit_class_type": "AMO",
            "orbit_class_description": "Near-Earth asteroid orbits similar to that of 1221 Amor",
            "orbit_class_range": "1.017 AU < q (perihelion) < 1.3 AU"
        }
    },
    "is_sentry_object": false
}